[{"OBJECT_NAME":"STARLINK-30255","OBJECT_ID":"2023-119E","EPOCH":"2026-03-09T22:00:01.999584","MEAN_MOTION":15.16774249,"ECCENTRICITY":0.000133,"INCLINATION":42.9991,"RA_OF_ASC_NODE":79.5096,"ARG_OF_PERICENTER":260.6815,"MEAN_ANOMALY":336.1551,"EPHEMERIS_TYPE":0,"CLASSIFICATION_TYPE":"U","NORAD_CAT_ID":57606,"ELEMENT_SET_NO":999,"REV_AT_EPOCH":562,"BSTAR":0.0048551842,"MEAN_MOTION_DOT":0.00098184,"MEAN_MOTION_DDOT":0},{"OBJECT_NAME":"TRANSPORTER-15 OBJECT F","OBJECT_ID":"2025-276F","EPOCH":"2026-03-09T17:57:42.210144","MEAN_MOTION":15.19380664,"ECCENTRICITY":0.00054716,"INCLINATION":97.4283,"RA_OF_ASC_NODE":144.0186,"ARG_OF_PERICENTER":0.0521,"MEAN_ANOMALY":0.0713,"EPHEMERIS_TYPE":0,"CLASSIFICATION_TYPE":"U","NORAD_CAT_ID":66671,"ELEMENT_SET_NO":999,"REV_AT_EPOCH":1532,"BSTAR":0.00065501978,"MEAN_MOTION_DOT":0.0001381,"MEAN_MOTION_DDOT":0}]
